1 45196U 20012U   22365.02371050  .00005308  00000-0  37512-3 0  9993
2 45196  53.0547 235.0191 0001594  69.3905 290.7255 15.06382781158390
1 45196U 20012U   22365.35543848  .00003432  00000-0  24920-3 0  9990
2 45196  53.0548 233.5299 0001658  73.4923 286.6248 15.06399093159391
1 45196U 20012U   22365.62082892  .00006958  00000-0  48552-3 0  9990
2 45196  53.0538 232.3382 0001600  71.8787 288.2376 15.06402577158488
1 45196U 20012U   22365.68717558  .00008185  00000-0  56761-3 0  9995
2 45196  53.0535 232.0403 0001590  72.1436 287.9726 15.06407428159441
1 45196U 20012U   23001.01890436  .00009871  00000-0  68027-3 0  9998
2 45196  53.0532 230.5511 0001551  71.6376 288.4781 15.06420301158547
1 45196U 20012U   23001.61602738  .00000290  00000-0  38348-4 0  9990
2 45196  53.0525 227.8703 0001710  73.8063 286.3114 15.06404520159582
1 45196U 20012U   23001.61602738  .00000290  00000-0  38348-4 0  9990
2 45196  53.0525 227.8703 0001710  73.8063 286.3114 15.06404520158637
1 45196U 20012U   23001.88141609 -.00000660  00000-0 -25428-4 0  9992
2 45196  53.0531 226.6791 0001730  73.2089 286.9090 15.06399777159628
1 45196U 20012U   23002.54488439  .00002014  00000-0  15407-3 0  9999
2 45196  53.0526 223.7001 0001548  73.1689 286.9470 15.06402133158774
1 45196U 20012U   23002.87661691  .00002487  00000-0  18574-3 0  9990
2 45196  53.0528 222.2112 0001501  73.0491 287.0662 15.06405427159777
1 45196U 20012U   23003.54008664  .00002830  00000-0  20878-3 0  9992
2 45196  53.0531 219.2336 0001464  69.7179 290.3967 15.06399019159873
1 45196U 20012U   23003.73912915  .00002281  00000-0  17201-3 0  9992
2 45196  53.0531 218.3396 0001415  70.4797 289.6344 15.06396883158954
1 45196U 20012U   23004.53528655  .00002649  00000-0  19666-3 0  9990
2 45196  53.0529 214.7650 0001344  73.1099 287.0037 15.06404489160024
1 45196U 20012U   23004.86701784  .00003450  00000-0  25033-3 0  9998
2 45196  53.0525 213.2763 0001448  72.9382 287.1766 15.06409620160073
1 45196U 20012U   23004.86701784  .00003450  00000-0  25033-3 0  9998
2 45196  53.0525 213.2763 0001448  72.9382 287.1766 15.06409620159127
1 45196U 20012U   23005.53048082  .00004707  00000-0  33454-3 0  9990
2 45196  53.0526 210.2977 0001363  71.4758 288.6379 15.06413583160175
1 45196U 20012U   23005.86221604  .00001182  00000-0  98212-4 0  9997
2 45196  53.0528 208.8077 0001360  71.0236 289.0900 15.06405097160227
1 45196U 20012U   23006.26029743 -.00001461  00000-0 -79180-4 0  9997
2 45196  53.0523 207.0206 0001345  67.7124 292.4007 15.06399274159333
1 45196U 20012U   23006.65838564 -.00005147  00000-0 -32705-3 0  9995
2 45196  53.0529 205.2336 0001309  71.5125 288.6006 15.06384250159397
1 45196U 20012U   23006.92377672 -.00002729  00000-0 -16442-3 0  9996
2 45196  53.0530 204.0430 0001390  72.8140 287.3001 15.06386865160388
1 45196U 20012U   23007.25551506 -.00001018  00000-0 -49470-4 0  9991
2 45196  53.0540 202.5533 0001422  72.3735 287.7410 15.06393065160431
1 45196U 20012U   23007.65359613 -.00001028  00000-0 -50146-4 0  9993
2 45196  53.0540 200.7667 0001443  71.3485 288.7661 15.06394538160494
1 45196U 20012U   23007.65359613 -.00001028  00000-0 -50146-4 0  9993
2 45196  53.0540 200.7667 0001443  71.3485 288.7661 15.06394538159548
1 45196U 20012U   23008.51611000  .00001813  00000-0  14062-3 0  9996
2 45196  53.0540 196.8946 0001467  72.0729 288.0420 15.06386436160623
1 45196U 20012U   23008.78149704  .00002167  00000-0  16436-3 0  9992
2 45196  53.0539 195.7032 0001467  72.5037 287.6112 15.06389791160666
1 45196U 20012U   23008.78149704  .00002167  00000-0  16436-3 0  9992
2 45196  53.0539 195.7032 0001467  72.5037 287.6112 15.06389791159710
1 45196U 20012U   23009.44496416  .00002131  00000-0  16191-3 0  9990
2 45196  53.0540 192.7248 0001485  72.3346 287.7805 15.06397173160769
1 45196U 20012U   23009.71034996  .00002414  00000-0  18091-3 0  9996
2 45196  53.0540 191.5334 0001493  72.4544 287.6608 15.06400159160806
1 45196U 20012U   23009.71034996  .00002414  00000-0  18091-3 0  9996
2 45196  53.0540 191.5334 0001493  72.4544 287.6608 15.06400159159859
1 45196U 20012U   23010.50650641  .00002218  00000-0  16772-3 0  9992
2 45196  53.0540 187.9590 0001494  74.7686 285.3468 15.06407107160924
1 45196U 20012U   23010.83824784  .00000654  00000-0  62818-4 0  9994
2 45196  53.0542 186.4700 0001481  72.0843 288.0307 15.06399061160027
1 45196U 20012U   23011.76709156  .00001387  00000-0  11198-3 0  9990
2 45196  53.0544 182.3004 0001423  72.8247 287.2897 15.06409603160167
1 45196U 20012U   23011.89978285  .00001263  00000-0  10366-3 0  9994
2 45196  53.0544 181.7040 0001414  69.5408 290.5733 15.06412679161133
1 45196U 20012U   23012.82863808  .00001550  00000-0  12292-3 0  9991
2 45196  53.0562 177.5336 0001506  64.9045 295.2101 15.06404777160323
1 45196U 20012U   23012.89498353  .00001861  00000-0  14374-3 0  9995
2 45196  53.0564 177.2355 0001506  63.8112 296.3031 15.06407120161281
1 45196U 20012U   23013.75748763 -.00018207  00000-0 -12059-2 0  9995
2 45196  53.0520 173.3622 0001203  98.7009 261.4117 15.06420237161410
1 45196U 20012U   23014.15560309  .00006592  00000-0  46156-3 0  9996
2 45196  53.0495 171.5758 0002700  87.0457 273.0841 15.06357553160526
1 45196U 20012U   23014.55366603  .00002528  00000-0  18863-3 0  9990
2 45196  53.0539 169.7912 0001103  82.0426 278.0689 15.06381767160588
1 45196U 20012U   23014.75270400  .00001659  00000-0  13027-3 0  9992
2 45196  53.0538 168.8971 0001228  77.4216 282.6910 15.06394889160616
1 45196U 20012U   23015.54887540  .00001483  00000-0  11848-3 0  9993
2 45196  53.0544 165.3242 0001268  81.1386 278.9746 15.06390392160733
1 45196U 20012U   23015.61522133  .00001586  00000-0  12537-3 0  9995
2 45196  53.0546 165.0265 0001224  80.9029 279.2098 15.06391710161695
1 45196U 20012U   23015.68156684  .00001972  00000-0  15126-3 0  9992
2 45196  53.0542 164.7282 0001310  84.2173 275.8966 15.06393924161706
1 45196U 20012U   23016.54407956  .00001371  00000-0  11095-3 0  9993
2 45196  53.0543 160.8558 0001335  88.0476 272.0665 15.06395614161832
1 45196U 20012U   23016.80946416  .00002386  00000-0  17903-3 0  9992
2 45196  53.0528 159.6636 0001276  86.5731 273.5404 15.06402906161873
1 45196U 20012U   23016.80946416  .00002386  00000-0  17903-3 0  9992
2 45196  53.0528 159.6636 0001276  86.5731 273.5404 15.06402906160928
1 45196U 20012U   23017.34024956 -.00000678  00000-0 -26657-4 0  9999
2 45196  53.0530 157.2818 0001331  88.7161 271.3981 15.06386984161957
1 45196U 20012U   23017.67198060  .00000864  00000-0  76893-4 0  9995
2 45196  53.0530 155.7926 0002040  98.1331 261.9890 15.06395437162006
1 45196U 20012U   23017.67198060  .00000864  00000-0  76893-4 0  9995
2 45196  53.0530 155.7926 0002040  98.1331 261.9890 15.06395437161050
1 45196U 20012U   23018.40179416  .00001067  00000-0  90514-4 0  9993
2 45196  53.0528 152.5167 0001597  99.9965 260.1204 15.06400866162118
1 45196U 20012U   23018.66717575  .00003763  00000-0  27129-3 0  9991
2 45196  53.0534 151.3260 0001177  98.0281 262.0841 15.06411674162152
1 45196U 20012U   23018.66717575  .00003763  00000-0  27129-3 0  9991
2 45196  53.0534 151.3260 0001177  98.0281 262.0841 15.06411674161207
1 45196U 20012U   23019.39699960  .00000798  00000-0  72458-4 0  9990
2 45196  53.0540 148.0492 0001174 102.4688 257.6432 15.06396204162266
1 45196U 20012U   23019.39699960  .00000798  00000-0  72458-4 0  9990
2 45196  53.0540 148.0492 0001174 102.4688 257.6432 15.06396204161311
1 45196U 20012U   23020.06046816  .00001984  00000-0  15207-3 0  9998
2 45196  53.0532 145.0696 0001154  89.3985 270.7136 15.06400125162367
1 45196U 20012U   23020.72392664  .00006715  00000-0  46904-3 0  9991
2 45196  53.0537 142.0922 0000973  92.0403 268.0697 15.06418078161519
1 45196U 20012U   23021.05566772  .00002169  00000-0  16445-3 0  9997
2 45196  53.0538 140.6029 0001074  87.8731 272.2381 15.06401166161563
1 45196U 20012U   23021.32106151  .00000248  00000-0  35571-4 0  9996
2 45196  53.0542 139.4116 0001268  97.3714 262.7419 15.06391262161609
1 45196U 20012U   23021.58644434  .00003547  00000-0  25688-3 0  9997
2 45196  53.0543 138.2204 0001477 101.7474 258.3681 15.06403903161642
1 45196U 20012U   23022.58164707  .00003534  00000-0  25599-3 0  9995
2 45196  53.0544 133.7525 0001199  96.5584 263.5541 15.06404112161795
1 45196U 20012U   23023.31146752  .00000677  00000-0  64355-4 0  9996
2 45196  53.0522 130.4776 0001378  89.2066 270.9081 15.06394136161904
1 45196U 20012U   23023.70954512  .00003141  00000-0  22965-3 0  9999
2 45196  53.0509 128.6894 0001557  88.6630 271.4537 15.06404265161961
1 45196U 20012U   23024.30667065 -.00000288  00000-0 -40514-6 0  9994
2 45196  53.0518 126.0079 0001670  98.7603 261.3575 15.06393405162050
1 45196U 20012U   23024.63840044  .00003786  00000-0  27285-3 0  9991
2 45196  53.0520 124.5179 0001271  92.8373 267.2762 15.06406146162109
1 45196U 20012U   23025.23553013  .00000003  00000-0  19082-4 0  9991
2 45196  53.0510 121.8386 0001286  99.5219 260.5915 15.06390326162194
1 45196U 20012U   23025.56726411  .00000852  00000-0  76080-4 0  9994
2 45196  53.0513 120.3489 0001275 100.4455 259.6678 15.06396506163199
1 45196U 20012U   23025.96534423  .00003264  00000-0  23791-3 0  9998
2 45196  53.0518 118.5613 0001347  91.5496 268.5647 15.06401735162305
1 45196U 20012U   23026.56246325  .00004410  00000-0  31472-3 0  9995
2 45196  53.0532 115.8824 0001375  87.7249 272.3897 15.06407902163346
1 45196U 20012U   23027.22593471  .00001255  00000-0  10315-3 0  9993
2 45196  53.0517 112.9022 0001421  94.0288 266.0864 15.06399502162498
1 45196U 20012U   23027.49132035  .00002062  00000-0  15730-3 0  9990
2 45196  53.0522 111.7117 0001359  95.0114 265.1030 15.06402838163487
1 45196U 20012U   23028.48652556  .00000020  00000-0  20252-4 0  9993
2 45196  53.0525 107.2451 0001193  69.1321 290.9796 15.06399089163634
1 45196U 20012U   23028.48652556  .00000020  00000-0  20252-4 0  9993
2 45196  53.0525 107.2451 0001193  69.1321 290.9796 15.06399089162688
1 45196U 20012U   23028.68556242  .00001107  00000-0  93167-4 0  9992
2 45196  53.0511 106.3488 0001329  94.3436 265.7705 15.06403738163667
1 45196U 20012U   23029.54807435  .00001928  00000-0  14828-3 0  9998
2 45196  53.0517 102.4794 0001378  75.3421 284.7721 15.06401991162844
1 45196U 20012U   23029.61442033  .00001922  00000-0  14791-3 0  9998
2 45196  53.0515 102.1803 0001330  83.2240 276.8901 15.06402633163808
1 45196U 20012U   23030.21154885  .00000104  00000-0  25879-4 0  9992
2 45196  53.0520  99.4981 0001478  99.9925 260.1231 15.06391164162948
1 45196U 20012U   23030.54328387  .00000663  00000-0  63425-4 0  9997
2 45196  53.0548  98.0104 0001409 105.2467 254.8677 15.06394171163942
1 45196U 20012U   23030.87501600  .00000190  00000-0  31639-4 0  9991
2 45196  53.0523  96.5205 0001085  90.5554 269.5560 15.06397685163995
1 45196U 20012U   23031.53847940  .00000980  00000-0  84681-4 0  9997
2 45196  53.0522  93.5419 0001319  95.1232 264.9907 15.06406947164090
1 45196U 20012U   23031.53847940  .00000980  00000-0  84681-4 0  9997
2 45196  53.0522  93.5419 0001319  95.1232 264.9907 15.06406947163145
1 45196U 20012U   23031.87021545  .00001550  00000-0  12291-3 0  9990
2 45196  53.0529  92.0526 0001216 100.1081 260.0045 15.06402525164149
